[
  {
    "OBJECT_NAME": "STARLINK-32174",
    "OBJECT_ID": "24183A",
    "EPOCH": "2025-11-11T06:43:12.965952",
    "MEAN_MOTION": 15.30173323,
    "ECCENTRICITY": 0.0001178,
    "INCLINATION": 53.1614,
    "RA_OF_ASC_NODE": 319.6457,
    "ARG_OF_PERICENTER": 76.6242,
    "MEAN_ANOMALY": 283.489,
    "EPHEMERIS_TYPE": 0,
    "CLASSIFICATION_TYPE": "U",
    "NORAD_CAT_ID": 61509,
    "ELEMENT_SET_NO": 999,
    "REV_AT_EPOCH": 6170,
    "BSTAR": 2.3871000000000002e-05,
    "MEAN_MOTION_DOT": 3.47e-06,
    "MEAN_MOTION_DDOT": 0.0,
    "TLE_LINE1": "1 61509U 24183A   25315.28001118  .00000347  00000+0  23871-4 0  9994",
    "TLE_LINE2": "2 61509  53.1614 319.6457 0001178  76.6242 283.4890 15.30173323 61708",
    "COMMENT": "Grouped by shell and plane from TLE"
  },
  {
    "OBJECT_NAME": "STARLINK-32201",
    "OBJECT_ID": "24183D",
    "EPOCH": "2025-11-11T06:37:06.912480",
    "MEAN_MOTION": 15.30189515,
    "ECCENTRICITY": 0.0001916,
    "INCLINATION": 53.1601,
    "RA_OF_ASC_NODE": 319.6195,
    "ARG_OF_PERICENTER": 92.6869,
    "MEAN_ANOMALY": 267.4351,
    "EPHEMERIS_TYPE": 0,
    "CLASSIFICATION_TYPE": "U",
    "NORAD_CAT_ID": 61512,
    "ELEMENT_SET_NO": 999,
    "REV_AT_EPOCH": 6170,
    "BSTAR": 7.5781e-05,
    "MEAN_MOTION_DOT": 1.885e-05,
    "MEAN_MOTION_DDOT": 0.0,
    "TLE_LINE1": "1 61512U 24183D   25315.27577445  .00001885  00000+0  75781-4 0  9993",
    "TLE_LINE2": "2 61512  53.1601 319.6195 0001916  92.6869 267.4351 15.30189515 61704",
    "COMMENT": "Grouped by shell and plane from TLE"
  },
  {
    "OBJECT_NAME": "STARLINK-32410",
    "OBJECT_ID": "24204P",
    "EPOCH": "2025-11-11T07:24:47.491200",
    "MEAN_MOTION": 15.3020031,
    "ECCENTRICITY": 0.0001195,
    "INCLINATION": 53.1588,
    "RA_OF_ASC_NODE": 316.8964,
    "ARG_OF_PERICENTER": 90.7207,
    "MEAN_ANOMALY": 269.3931,
    "EPHEMERIS_TYPE": 0,
    "CLASSIFICATION_TYPE": "U",
    "NORAD_CAT_ID": 61887,
    "ELEMENT_SET_NO": 999,
    "REV_AT_EPOCH": 5697,
    "BSTAR": 9.068e-05,
    "MEAN_MOTION_DOT": 2.327e-05,
    "MEAN_MOTION_DDOT": 0.0,
    "TLE_LINE1": "1 61887U 24204P   25315.30888300  .00002327  00000+0  90680-4 0  9998",
    "TLE_LINE2": "2 61887  53.1588 316.8964 0001195  90.7207 269.3931 15.30200310 56975",
    "COMMENT": "Grouped by shell and plane from TLE"
  },
  {
    "OBJECT_NAME": "STARLINK-32377",
    "OBJECT_ID": "24204Q",
    "EPOCH": "2025-11-11T07:14:09.118752",
    "MEAN_MOTION": 15.30192865,
    "ECCENTRICITY": 0.0001121,
    "INCLINATION": 53.1613,
    "RA_OF_ASC_NODE": 316.8476,
    "ARG_OF_PERICENTER": 79.7548,
    "MEAN_ANOMALY": 280.3579,
    "EPHEMERIS_TYPE": 0,
    "CLASSIFICATION_TYPE": "U",
    "NORAD_CAT_ID": 61888,
    "ELEMENT_SET_NO": 999,
    "REV_AT_EPOCH": 5696,
    "BSTAR": 0.00014517,
    "MEAN_MOTION_DOT": 3.942e-05,
    "MEAN_MOTION_DDOT": 0.0,
    "TLE_LINE1": "1 61888U 24204Q   25315.30149443  .00003942  00000+0  14517-3 0  9995",
    "TLE_LINE2": "2 61888  53.1613 316.8476 0001121  79.7548 280.3579 15.30192865 56962",
    "COMMENT": "Grouped by shell and plane from TLE"
  },
  {
    "OBJECT_NAME": "STARLINK-32292",
    "OBJECT_ID": "24204R",
    "EPOCH": "2025-11-11T06:04:25.626432",
    "MEAN_MOTION": 15.30180529,
    "ECCENTRICITY": 0.0001137,
    "INCLINATION": 53.161,
    "RA_OF_ASC_NODE": 317.2557,
    "ARG_OF_PERICENTER": 85.5869,
    "MEAN_ANOMALY": 274.5262,
    "EPHEMERIS_TYPE": 0,
    "CLASSIFICATION_TYPE": "U",
    "NORAD_CAT_ID": 61889,
    "ELEMENT_SET_NO": 999,
    "REV_AT_EPOCH": 5696,
    "BSTAR": 3.6661000000000004e-06,
    "MEAN_MOTION_DOT": -2.5e-06,
    "MEAN_MOTION_DDOT": 0.0,
    "TLE_LINE1": "1 61889U 24204R   25315.25307438 -.00000250  00000+0  36661-5 0  9996",
    "TLE_LINE2": "2 61889  53.1610 317.2557 0001137  85.5869 274.5262 15.30180529 56961",
    "COMMENT": "Grouped by shell and plane from TLE"
  },
  {
    "OBJECT_NAME": "STARLINK-32501",
    "OBJECT_ID": "24204S",
    "EPOCH": "2025-11-11T06:27:12.635136",
    "MEAN_MOTION": 15.30192268,
    "ECCENTRICITY": 0.0001516,
    "INCLINATION": 53.1609,
    "RA_OF_ASC_NODE": 317.3524,
    "ARG_OF_PERICENTER": 100.7716,
    "MEAN_ANOMALY": 259.3456,
    "EPHEMERIS_TYPE": 0,
    "CLASSIFICATION_TYPE": "U",
    "NORAD_CAT_ID": 61890,
    "ELEMENT_SET_NO": 999,
    "REV_AT_EPOCH": 5696,
    "BSTAR": 6.7921e-05,
    "MEAN_MOTION_DOT": 1.652e-05,
    "MEAN_MOTION_DDOT": 0.0,
    "TLE_LINE1": "1 61890U 24204S   25315.26889624  .00001652  00000+0  67921-4 0  9999",
    "TLE_LINE2": "2 61890  53.1609 317.3524 0001516 100.7716 259.3456 15.30192268 56967",
    "COMMENT": "Grouped by shell and plane from TLE"
  },
  {
    "OBJECT_NAME": "STARLINK-32383",
    "OBJECT_ID": "24204T",
    "EPOCH": "2025-11-11T06:18:06.194880",
    "MEAN_MOTION": 15.30173169,
    "ECCENTRICITY": 0.0001621,
    "INCLINATION": 53.1622,
    "RA_OF_ASC_NODE": 317.3125,
    "ARG_OF_PERICENTER": 89.592,
    "MEAN_ANOMALY": 270.5266,
    "EPHEMERIS_TYPE": 0,
    "CLASSIFICATION_TYPE": "U",
    "NORAD_CAT_ID": 61891,
    "ELEMENT_SET_NO": 999,
    "REV_AT_EPOCH": 5696,
    "BSTAR": 0.0,
    "MEAN_MOTION_DOT": -9.81e-06,
    "MEAN_MOTION_DDOT": 0.0,
    "TLE_LINE1": "1 61891U 24204T   25315.26257170 -.00000981  00000+0 -21005-4 0  9994",
    "TLE_LINE2": "2 61891  53.1622 317.3125 0001621  89.5920 270.5266 15.30173169 56961",
    "COMMENT": "Grouped by shell and plane from TLE"
  },
  {
    "OBJECT_NAME": "STARLINK-32239",
    "OBJECT_ID": "24204U",
    "EPOCH": "2025-11-11T06:37:50.713824",
    "MEAN_MOTION": 15.30194646,
    "ECCENTRICITY": 0.0001101,
    "INCLINATION": 53.1625,
    "RA_OF_ASC_NODE": 317.4003,
    "ARG_OF_PERICENTER": 93.8908,
    "MEAN_ANOMALY": 266.2219,
    "EPHEMERIS_TYPE": 0,
    "CLASSIFICATION_TYPE": "U",
    "NORAD_CAT_ID": 61892,
    "ELEMENT_SET_NO": 999,
    "REV_AT_EPOCH": 5696,
    "BSTAR": 5.3941e-05,
    "MEAN_MOTION_DOT": 1.239e-05,
    "MEAN_MOTION_DDOT": 0.0,
    "TLE_LINE1": "1 61892U 24204U   25315.27628141  .00001239  00000+0  53941-4 0  9995",
    "TLE_LINE2": "2 61892  53.1625 317.4003 0001101  93.8908 266.2219 15.30194646 56961",
    "COMMENT": "Grouped by shell and plane from TLE"
  },
  {
    "OBJECT_NAME": "STARLINK-32489",
    "OBJECT_ID": "24204V",
    "EPOCH": "2025-11-11T07:00:28.158912",
    "MEAN_MOTION": 15.3021431,
    "ECCENTRICITY": 0.0001497,
    "INCLINATION": 53.1604,
    "RA_OF_ASC_NODE": 316.7929,
    "ARG_OF_PERICENTER": 99.0373,
    "MEAN_ANOMALY": 261.0797,
    "EPHEMERIS_TYPE": 0,
    "CLASSIFICATION_TYPE": "U",
    "NORAD_CAT_ID": 61893,
    "ELEMENT_SET_NO": 999,
    "REV_AT_EPOCH": 5696,
    "BSTAR": 0.00030379,
    "MEAN_MOTION_DOT": 8.652e-05,
    "MEAN_MOTION_DDOT": 0.0,
    "TLE_LINE1": "1 61893U 24204V   25315.29199258  .00008652  00000+0  30379-3 0  9995",
    "TLE_LINE2": "2 61893  53.1604 316.7929 0001497  99.0373 261.0797 15.30214310 56965",
    "COMMENT": "Grouped by shell and plane from TLE"
  },
  {
    "OBJECT_NAME": "STARLINK-32705",
    "OBJECT_ID": "24254T",
    "EPOCH": "2025-11-11T07:04:39.358272",
    "MEAN_MOTION": 15.27619888,
    "ECCENTRICITY": 0.0001345,
    "INCLINATION": 42.9991,
    "RA_OF_ASC_NODE": 317.4221,
    "ARG_OF_PERICENTER": 244.3234,
    "MEAN_ANOMALY": 115.7479,
    "EPHEMERIS_TYPE": 0,
    "CLASSIFICATION_TYPE": "U",
    "NORAD_CAT_ID": 62479,
    "ELEMENT_SET_NO": 999,
    "REV_AT_EPOCH": 4947,
    "BSTAR": 0.0018564,
    "MEAN_MOTION_DOT": 0.00051241,
    "MEAN_MOTION_DDOT": 0.0,
    "TLE_LINE1": "1 62479U 24254T   25315.29489998  .00051241  00000+0  18564-2 0  9997",
    "TLE_LINE2": "2 62479  42.9991 317.4221 0001345 244.3234 115.7479 15.27619888 49472",
    "COMMENT": "Grouped by shell and plane from TLE"
  },
  {
    "OBJECT_NAME": "STARLINK-32868",
    "OBJECT_ID": "25022A",
    "EPOCH": "2025-11-11T06:21:51.840576",
    "MEAN_MOTION": 15.30194682,
    "ECCENTRICITY": 0.0001449,
    "INCLINATION": 53.1612,
    "RA_OF_ASC_NODE": 319.3411,
    "ARG_OF_PERICENTER": 99.1344,
    "MEAN_ANOMALY": 260.9821,
    "EPHEMERIS_TYPE": 0,
    "CLASSIFICATION_TYPE": "U",
    "NORAD_CAT_ID": 62854,
    "ELEMENT_SET_NO": 999,
    "REV_AT_EPOCH": 4458,
    "BSTAR": 0.0012319,
    "MEAN_MOTION_DOT": 0.00036299,
    "MEAN_MOTION_DDOT": 0.0,
    "TLE_LINE1": "1 62854U 25022A   25315.26518334  .00036299  00000+0  12319-2 0  9990",
    "TLE_LINE2": "2 62854  53.1612 319.3411 0001449  99.1344 260.9821 15.30194682 44583",
    "COMMENT": "Grouped by shell and plane from TLE"
  },
  {
    "OBJECT_NAME": "STARLINK-32867",
    "OBJECT_ID": "25022B",
    "EPOCH": "2025-11-11T06:26:25.257696",
    "MEAN_MOTION": 15.30195228,
    "ECCENTRICITY": 0.0001373,
    "INCLINATION": 53.161,
    "RA_OF_ASC_NODE": 319.3497,
    "ARG_OF_PERICENTER": 85.0667,
    "MEAN_ANOMALY": 275.049,
    "EPHEMERIS_TYPE": 0,
    "CLASSIFICATION_TYPE": "U",
    "NORAD_CAT_ID": 62855,
    "ELEMENT_SET_NO": 999,
    "REV_AT_EPOCH": 4377,
    "BSTAR": 0.00094435,
    "MEAN_MOTION_DOT": 0.0002771,
    "MEAN_MOTION_DDOT": 0.0,
    "TLE_LINE1": "1 62855U 25022B   25315.26834789  .00027710  00000+0  94435-3 0  9994",
    "TLE_LINE2": "2 62855  53.1610 319.3497 0001373  85.0667 275.0490 15.30195228 43770",
    "COMMENT": "Grouped by shell and plane from TLE"
  },
  {
    "OBJECT_NAME": "STARLINK-32860",
    "OBJECT_ID": "25022C",
    "EPOCH": "2025-11-11T06:09:52.119936",
    "MEAN_MOTION": 15.30208295,
    "ECCENTRICITY": 0.0001227,
    "INCLINATION": 53.1596,
    "RA_OF_ASC_NODE": 319.9969,
    "ARG_OF_PERICENTER": 80.7723,
    "MEAN_ANOMALY": 279.3416,
    "EPHEMERIS_TYPE": 0,
    "CLASSIFICATION_TYPE": "U",
    "NORAD_CAT_ID": 62856,
    "ELEMENT_SET_NO": 999,
    "REV_AT_EPOCH": 4376,
    "BSTAR": 0.0006249200000000001,
    "MEAN_MOTION_DOT": 0.00018199,
    "MEAN_MOTION_DDOT": 0.0,
    "TLE_LINE1": "1 62856U 25022C   25315.25685324  .00018199  00000+0  62492-3 0  9992",
    "TLE_LINE2": "2 62856  53.1596 319.9969 0001227  80.7723 279.3416 15.30208295 43760",
    "COMMENT": "Grouped by shell and plane from TLE"
  }
]